STARLINK-30839          
1 58209U 23170D   26068.40714966 -.00001095  00000+0 -31104-4 0  9995
2 58209  43.0028 195.1906 0003394 147.1104 212.9959 15.26735182130260
KUIPER-00209            
1 67776U 26030N   26068.61786546  .00035298  00000+0  11963-2 0  9997
2 67776  51.8838 220.0775 0012191  59.1967 301.0215 15.30161950  5077
